{
    "links": {
        "self": "http://www.neowsapp.com/rest/v1/neo/3368185?api_key=iIulBulltgU6a56xZRHN4H3l9WmuAYTsLGpBGhQ2"
    },
    "id": "3368185",
    "neo_reference_id": "3368185",
    "name": "(2007 CB27)",
    "designation": "2007 CB27",
    "nasa_jpl_url": "http://ssd.jpl.nasa.gov/sbdb.cgi?sstr=3368185",
    "absolute_magnitude_h": 23.3,
    "estimated_diameter": {
        "kilometers": {
            "estimated_diameter_min": 0.058150704,
            "estimated_diameter_max": 0.130028927
        },
        "meters": {
            "estimated_diameter_min": 58.1507039646,
            "estimated_diameter_max": 130.0289270043
        },
        "miles": {
            "estimated_diameter_min": 0.0361331611,
            "estimated_diameter_max": 0.0807962044
        },
        "feet": {
            "estimated_diameter_min": 190.7831555951,
            "estimated_diameter_max": 426.6041048727
        }
    },
    "is_potentially_hazardous_asteroid": false,
    "close_approach_data": [
        {
            "close_approach_date": "2001-02-12",
            "close_approach_date_full": "2001-Feb-12 13:10",
            "epoch_date_close_approach": 981983400000,
            "relative_velocity": {
                "kilometers_per_second": "15.5354181033",
                "kilometers_per_hour": "55927.5051718667",
                "miles_per_hour": "34751.1767552635"
            },
            "miss_distance": {
                "astronomical": "0.4658340454",
                "lunar": "181.2094436606",
                "kilometers": "69687780.965323298",
                "miles": "43301979.1523975924"
            },
            "orbiting_body": "Earth"
        },
        {
            "close_approach_date": "2007-02-16",
            "close_approach_date_full": "2007-Feb-16 18:21",
            "epoch_date_close_approach": 1171650060000,
            "relative_velocity": {
                "kilometers_per_second": "10.2042012053",
                "kilometers_per_hour": "36735.1243390318",
                "miles_per_hour": "22825.7776761056"
            },
            "miss_distance": {
                "astronomical": "0.0665801045",
                "lunar": "25.8996606505",
                "kilometers": "9960241.817577415",
                "miles": "6189007.277361727"
            },
            "orbiting_body": "Earth"
        },
        {
            "close_approach_date": "2007-07-10",
            "close_approach_date_full": "2007-Jul-10 22:25",
            "epoch_date_close_approach": 1184106300000,
            "relative_velocity": {
                "kilometers_per_second": "10.6026307938",
                "kilometers_per_hour": "38169.4708578182",
                "miles_per_hour": "23717.0248227371"
            },
            "miss_distance": {
                "astronomical": "0.3956099503",
                "lunar": "153.8922706667",
                "kilometers": "59182405.915685861",
                "miles": "36774241.7917564418"
            },
            "orbiting_body": "Earth"
        }
    ],
    "orbital_data": {
        "orbit_id": "11",
        "orbit_determination_date": "2017-04-06 09:07:01",
        "first_observation_date": "2007-02-13",
        "last_observation_date": "2007-02-23",
        "data_arc_in_days": 10,
        "observations_used": 28,
        "orbit_uncertainty": "8",
        "minimum_orbit_intersection": ".0622831",
        "jupiter_tisserand_invariant": "5.523",
        "epoch_osculation": "2454146.5",
        "eccentricity": ".0615088371367887",
        "semi_major_axis": "1.119060868059091",
        "inclination": "19.46699715335492",
        "ascending_node_longitude": "327.2264582980782",
        "orbital_period": "432.3933348750697",
        "perihelion_distance": "1.050228735379491",
        "perihelion_argument": "178.7865499672484",
        "aphelion_distance": "1.187893000738691",
        "perihelion_time": "2454145.212265336695",
        "mean_anomaly": "1.072136042346125",
        "mean_motion": ".8325752757128273",
        "equinox": "J2000",
        "orbit_class": {
            "orbit_class_type": "AMO",
            "orbit_class_description": "Near-Earth asteroid orbits similar to that of 1221 Amor",
            "orbit_class_range": "1.017 AU < q (perihelion) < 1.3 AU"
        }
    },
    "is_sentry_object": false
}